NORAD_CAT_ID,OBJECT_NAME,OBJECT_TYPE,EPOCH,MEAN_MOTION,ECCENTRICITY,INCLINATION,RA_OF_ASC_NODE,ARG_OF_PERICENTER,MEAN_ANOMALY,BSTAR,MEAN_MOTION_DOT,MEAN_MOTION_DDOT,TLE_LINE0,TLE_LINE1,TLE_LINE2,SEMIMAJOR_AXIS,PERIOD,APOGEE,PERIGEE,DECAYED
52636.0,STARLINK-3967,PAYLOAD,2022-12-22 09:27:35,15.08846925,0.0002515,53.2181,136.2469,45.6595,314.4603,4.3872e-05,4.1e-06,0.0,0 STARLINK-3967,1 52636U 22052AQ  22356.39416037  .00000410  00000-0  43872-4 0  9997,2 52636  53.2181 136.2469 0002515  45.6595 314.4603 15.08846925 34244,6917.859,95.437,541.464,537.984,0.0
52636.0,STARLINK-3967,PAYLOAD,2022-12-22 15:49:07,15.08856125,0.0002855,53.2179,135.058,50.3202,309.8042,-2.5205e-05,-6.900000000000003e-06,0.0,0 STARLINK-3967,1 52636U 22052AQ  22356.65911522 -.00000690  00000-0 -25205-4 0  9997,2 52636  53.2179 135.0580 0002855  50.3202 309.8042 15.08856125 33907,6917.831,95.437,541.6709999999998,537.721,0.0
52636.0,STARLINK-3967,PAYLOAD,2022-12-23 09:18:23,15.08832866,0.0002431,53.218,131.7874,43.524,316.5944,4.7913e-05,4.74e-06,0.0,0 STARLINK-3967,1 52636U 22052AQ  22357.38776869  .00000474  00000-0  47913-4 0  9999,2 52636  53.2180 131.7874 0002431  43.5240 316.5944 15.08832866 34390,6917.901999999999,95.438,541.4490000000002,538.085,0.0
52636.0,STARLINK-3967,PAYLOAD,2022-12-23 15:39:56,15.08830721,0.0002464,53.2181,130.5981,43.3478,316.7707,2.3217e-05,8.1e-07,0.0,0 STARLINK-3967,1 52636U 22052AQ  22357.65273180  .00000081  00000-0  23217-4 0  9992,2 52636  53.2181 130.5981 0002464  43.3478 316.7707 15.08830721 34054,6917.909000000002,95.438,541.4780000000002,538.069,0.0
52636.0,STARLINK-3967,PAYLOAD,2022-12-24 09:09:09,15.0884692,0.000247,53.2179,127.3274,42.5815,317.5368,7.369600000000001e-05,8.85e-06,0.0,0 STARLINK-3967,1 52636U 22052AQ  22358.38136105  .00000885  00000-0  73696-4 0  9996,2 52636  53.2179 127.3274 0002470  42.5815 317.5368 15.08846920 34547,6917.859,95.437,541.433,538.016,0.0
52636.0,STARLINK-3967,PAYLOAD,2022-12-24 15:30:42,15.08837934,0.0002525,53.2183,126.1373,45.5213,314.5985,-2.5229e-05,-6.900000000000003e-06,0.0,0 STARLINK-3967,1 52636U 22052AQ  22358.64632941 -.00000690  00000-0 -25229-4 0  9999,2 52636  53.2183 126.1373 0002525  45.5213 314.5985 15.08837934 34586,6917.887,95.438,541.498,538.005,0.0
52636.0,STARLINK-3967,PAYLOAD,2022-12-25 08:59:57,15.08839553,0.0002485,53.2181,122.8666,43.6118,316.507,4.6212e-05,4.47e-06,0.0,0 STARLINK-3967,1 52636U 22052AQ  22359.37496699  .00000447  00000-0  46212-4 0  9991,2 52636  53.2181 122.8666 0002485  43.6118 316.5070 15.08839553 34317,6917.882,95.438,541.466,538.028,0.0
52636.0,STARLINK-3967,PAYLOAD,2022-12-25 20:07:39,15.08834016,0.0002513,53.2193,120.7836,41.9728,318.1457,4.7933e-05,4.74e-06,0.0,0 STARLINK-3967,1 52636U 22052AQ  22359.83865167  .00000474  00000-0  47933-4 0  9993,2 52636  53.2193 120.7836 0002513  41.9728 318.1457 15.08834016 34389,6917.899,95.438,541.502,538.025,0.0
52636.0,STARLINK-3967,PAYLOAD,2022-12-26 00:53:48,15.08834827,0.0002519,53.2199,119.8912,41.8457,318.2727,7.9788e-05,9.82e-06,0.0,0 STARLINK-3967,1 52636U 22052AQ  22360.03737086  .00000982  00000-0  79788-4 0  9992,2 52636  53.2199 119.8912 0002519  41.8457 318.2727 15.08834827 34799,6917.896,95.438,541.504,538.019,0.0
52636.0,STARLINK-3967,PAYLOAD,2022-12-26 18:23:03,15.08833141,0.0002543,53.2196,116.621,39.6012,320.5166,5.7943e-05,6.34e-06,0.0,0 STARLINK-3967,1 52636U 22052AQ  22360.76601491  .00000634  00000-0  57943-4 0  9995,2 52636  53.2196 116.6210 0002543  39.6012 320.5166 15.08833141 34523,6917.901,95.438,541.526,538.007,0.0
52636.0,STARLINK-3967,PAYLOAD,2022-12-27 16:38:26,15.08848508,0.0002422,53.2191,112.4591,42.0888,318.029,0.00020673,3.004e-05,0.0,0 STARLINK-3967,1 52636U 22052AQ  22361.69335792  .00003004  00000-0  20673-3 0  9999,2 52636  53.2191 112.4591 0002422  42.0888 318.0290 15.08848508 35040,6917.854,95.437,541.395,538.044,0.0
52636.0,STARLINK-3967,PAYLOAD,2022-12-28 08:32:17,15.08842307,0.0002452,53.2191,109.4855,39.2724,320.8446,4.9112e-05,4.93e-06,0.0,0 STARLINK-3967,1 52636U 22052AQ  22362.35576310  .00000493  00000-0  49112-4 0  9995,2 52636  53.2191 109.4855 0002452  39.2724 320.8446 15.08842307 35145,6917.873000000001,95.437,541.435,538.0419999999998,0.0
52636.0,STARLINK-3967,PAYLOAD,2022-12-29 00:26:10,15.08832813,0.0002478,53.2182,106.5116,34.4282,325.687,-0.00011203,-2.071e-05,0.0,0 STARLINK-3967,1 52636U 22052AQ  22363.01817508 -.00002071  00000-0 -11203-3 0  9991,2 52636  53.2182 106.5116 0002478  34.4282 325.6870 15.08832813 35243,6917.901999999999,95.438,541.482,538.053,0.0
52636.0,STARLINK-3967,PAYLOAD,2022-12-29 13:09:16,15.0881955,0.0002281,53.2203,104.1297,28.6012,331.5104,-0.00020924,-3.615e-05,0.0,0 STARLINK-3967,1 52636U 22052AQ  22363.54810903 -.00003615  00000-0 -20924-3 0  9996,2 52636  53.2203 104.1297 0002281  28.6012 331.5104 15.08819550 34944,6917.943,95.439,541.386,538.23,0.0
52636.0,STARLINK-3967,PAYLOAD,2022-12-30 11:24:39,15.08842322,0.0002759,53.2198,99.9746,35.5186,324.5989,-0.00017327,-3.045e-05,0.0,0 STARLINK-3967,1 52636U 22052AQ  22364.47546260 -.00003045  00000-0 -17327-3 0  9991,2 52636  53.2198  99.9746 0002759  35.5186 324.5989 15.08842322 35460,6917.873000000001,95.437,541.6469999999998,537.83,0.0
52636.0,STARLINK-3967,PAYLOAD,2022-12-30 13:00:02,15.08832856,0.0002379999999999,53.218,99.6727,30.5228,329.5902,0.00015981,2.256e-05,0.0,0 STARLINK-3967,1 52636U 22052AQ  22364.54169786  .00002256  00000-0  15981-3 0  9998,2 52636  53.2180  99.6727 0002380  30.5228 329.5902 15.08832856 35099,6917.901999999999,95.438,541.414,538.121,0.0
52636.0,STARLINK-3967,PAYLOAD,2022-12-31 00:07:43,15.08852122,0.0002541,53.2205,97.5928,29.3866,330.7268,0.00023271,3.418e-05,0.0,0 STARLINK-3967,1 52636U 22052AQ  22365.00536360  .00003418  00000-0  23271-3 0  9998,2 52636  53.2205  97.5928 0002541  29.3866 330.7268 15.08852122 35547,6917.843000000003,95.437,541.466,537.951,0.0
52636.0,STARLINK-3967,PAYLOAD,2022-12-31 12:50:48,15.08846934,0.0002513,53.2189,95.2133,28.7258,331.3872,0.00035754,5.408e-05,0.0,0 STARLINK-3967,1 52636U 22052AQ  22365.53527925  .00005408  00000-0  35754-3 0  9993,2 52636  53.2189  95.2133 0002513  28.7258 331.3872 15.08846934 35247,6917.859,95.437,541.4630000000002,537.986,0.0
52636.0,STARLINK-3967,PAYLOAD,2023-01-01 12:41:37,15.08827165,0.0002448,53.2193,90.7514,24.5904,335.5205,-0.00017756,-3.112e-05,0.0,0 STARLINK-3967,1 52636U 22052AQ  23001.52890952 -.00003112  00000-0 -17756-3 0  9997,2 52636  53.2193  90.7514 0002448  24.5904 335.5205 15.08827165 35773,6917.92,95.438,541.4780000000002,538.091,0.0
52636.0,STARLINK-3967,PAYLOAD,2023-01-01 14:17:01,15.08821599,0.0002465,53.2188,90.4552,27.5398,332.5725,-0.00019319,-3.3600000000000004e-05,0.0,0 STARLINK-3967,1 52636U 22052AQ  23001.59515336 -.00003360  00000-0 -19319-3 0  9996,2 52636  53.2188  90.4552 0002465  27.5398 332.5725 15.08821599 35404,6917.937,95.439,541.507,538.096,0.0
52636.0,STARLINK-3967,PAYLOAD,2023-01-01 15:52:24,15.0882217,0.0002504999999999,53.2187,90.1576,26.6346,333.4775,-0.00020697,-3.579e-05,0.0,0 STARLINK-3967,1 52636U 22052AQ  23001.66139414 -.00003579  00000-0 -20697-3 0  9996,2 52636  53.2187  90.1576 0002505  26.6346 333.4775 15.08822170 35416,6917.935,95.439,541.533,538.067,0.0
52636.0,STARLINK-3967,PAYLOAD,2023-01-02 12:32:23,15.08845451,0.0002525999999999,53.2184,86.2928,24.2119,335.8992,-0.00010511,-1.961e-05,0.0,0 STARLINK-3967,1 52636U 22052AQ  23002.52249758 -.00001961  00000-0 -10511-3 0  9992,2 52636  53.2184  86.2928 0002526  24.2119 335.8992 15.08845451 35925,6917.864000000001,95.437,541.476,537.981,0.0
52636.0,STARLINK-3967,PAYLOAD,2023-01-02 22:04:43,15.08836452,0.0002552999999999,53.2184,84.5088,26.0158,334.0962,-4.7162e-05,-1.039e-05,0.0,0 STARLINK-3967,1 52636U 22052AQ  23002.91994283 -.00001039  00000-0 -47162-4 0  9994,2 52636  53.2184  84.5088 0002553  26.0158 334.0962 15.08836452 35600,6917.891,95.438,541.5219999999998,537.99,0.0
52636.0,STARLINK-3967,PAYLOAD,2023-01-03 13:58:34,15.0883229,0.000267,53.2179,81.5349,21.6381,338.4723,0.0001918,2.765e-05,0.0,0 STARLINK-3967,1 52636U 22052AQ  23003.58234350  .00002765  00000-0  19180-3 0  9993,2 52636  53.2179  81.5349 0002670  21.6381 338.4723 15.08832290 35700,6917.904,95.438,541.616,537.922,0.0
52636.0,STARLINK-3967,PAYLOAD,2023-01-04 04:17:02,15.08834133,0.0002525999999999,53.2185,78.8579,26.1043,334.0077,0.00017002,2.418e-05,0.0,0 STARLINK-3967,1 52636U 22052AQ  23004.17850609  .00002418  00000-0  17002-3 0  9996,2 52636  53.2185  78.8579 0002526  26.1043 334.0077 15.08834133 36170,6917.898,95.438,541.511,538.016,0.0
52636.0,STARLINK-3967,PAYLOAD,2023-01-04 10:38:35,15.08841321,0.000258,53.2185,77.668,28.5512,331.5621,9.2308e-05,1.181e-05,0.0,0 STARLINK-3967,1 52636U 22052AQ  23004.44346519  .00001181  00000-0  92308-4 0  9995,2 52636  53.2185  77.6680 0002580  28.5512 331.5621 15.08841321 35833,6917.876,95.437,541.526,537.957,0.0
52636.0,STARLINK-3967,PAYLOAD,2023-01-04 12:13:58,15.08843747,0.0002566999999999,53.2186,77.3704,28.4884,331.6248,0.00011009,1.464e-05,0.0,0 STARLINK-3967,1 52636U 22052AQ  23004.50970292  .00001464  00000-0  11009-3 0  9995,2 52636  53.2186  77.3704 0002567  28.4884 331.6248 15.08843747 36228,6917.869000000002,95.437,541.51,537.9580000000002,0.0
52636.0,STARLINK-3967,PAYLOAD,2023-01-05 04:07:48,15.0886054,0.0002679,53.2192,74.3997,28.3368,331.7769,0.00017802,2.548e-05,0.0,0 STARLINK-3967,1 52636U 22052AQ  23005.17208581  .00002548  00000-0  17802-3 0  9995,2 52636  53.2192  74.3997 0002679  28.3368 331.7769 15.08860540 36326,6917.818,95.436,541.536,537.8290000000002,0.0
52636.0,STARLINK-3967,PAYLOAD,2023-01-05 13:40:06,15.08861807,0.000266,53.2179,72.6146,26.1679,333.9447,0.00011971,1.618e-05,0.0,0 STARLINK-3967,1 52636U 22052AQ  23005.56952138  .00001618  00000-0  11971-3 0  9990,2 52636  53.2179  72.6146 0002660  26.1679 333.9447 15.08861807 36008,6917.814,95.436,541.519,537.839,0.0
